{
  "type": "FeatureCollection",
  "features": [
    {
      "type": "Feature",
      "properties": {
        "norad_id": 26766,
        "name": "INTELSAT 10 (IS-10)",
        "group": "intelsat",
        "lat": 6.461778593670553,
        "lon": 109.3464294353853,
        "alt_km": 36156.26914877593,
        "timestamp": "2025-12-08T15:42:49.445933+00:00",
        "meta_object_name": "INTELSAT 10 (IS-10)",
        "meta_object_id": "2001-019A",
        "meta_epoch": "2025-12-07T12:34:38.803008",
        "meta_mean_motion": 0.99078913,
        "meta_eccentricity": 0.00078602,
        "meta_inclination": 8.6172,
        "meta_ra_of_asc_node": 61.2081,
        "meta_arg_of_pericenter": 221.0792,
        "meta_mean_anomaly": 144.0907,
        "meta_ephemeris_type": 0,
        "meta_classification_type": "U",
        "meta_norad_cat_id": 26766,
        "meta_element_set_no": 999,
        "meta_rev_at_epoch": 4368,
        "meta_bstar": 0,
        "meta_mean_motion_dot": -2.59e-06,
        "meta_mean_motion_ddot": 0,
        "tle_line1": "1 26766U 01019A   25341.52406022 -.00000259  00000+0  00000+0 0  9999",
        "tle_line2": "2 26766   8.6172  61.2081 0007860 221.0792 144.0907  0.99078913 43687"
      },
      "geometry": {
        "type": "Point",
        "coordinates": [
          109.3464294353853,
          6.461778593670553
        ]
      }
    },
    {
      "type": "Feature",
      "properties": {
        "norad_id": 26900,
        "name": "INTELSAT 902 (IS-902)",
        "group": "intelsat",
        "lat": -0.9107108547313917,
        "lon": -96.8417442599173,
        "alt_km": 35769.63760203442,
        "timestamp": "2025-12-08T15:42:49.445957+00:00",
        "meta_object_name": "INTELSAT 902 (IS-902)",
        "meta_object_id": "2001-039A",
        "meta_epoch": "2025-12-01T16:59:59.311968",
        "meta_mean_motion": 1.00270327,
        "meta_eccentricity": 0.00043097,
        "meta_inclination": 5.6187,
        "meta_ra_of_asc_node": 74.2002,
        "meta_arg_of_pericenter": 175.119,
        "meta_mean_anomaly": 26.3816,
        "meta_ephemeris_type": 0,
        "meta_classification_type": "U",
        "meta_norad_cat_id": 26900,
        "meta_element_set_no": 999,
        "meta_rev_at_epoch": 8871,
        "meta_bstar": 0,
        "meta_mean_motion_dot": -2.63e-06,
        "meta_mean_motion_ddot": 0,
        "tle_line1": "1 26900U 01039A   25335.70832537 -.00000263  00000+0  00000+0 0  9993",
        "tle_line2": "2 26900   5.6187  74.2002 0004309 175.1190  26.3816  1.00270327 88713"
      },
      "geometry": {
        "type": "Point",
        "coordinates": [
          -96.8417442599173,
          -0.9107108547313917
        ]
      }
    },
    {
      "type": "Feature",
      "properties": {
        "norad_id": 27380,
        "name": "INTELSAT 904 (IS-904)",
        "group": "intelsat",
        "lat": -3.27191848558242,
        "lon": -78.33196584361447,
        "alt_km": 35780.00762605077,
        "timestamp": "2025-12-08T15:42:49.445973+00:00",
        "meta_object_name": "INTELSAT 904 (IS-904)",
        "meta_object_id": "2002-007A",
        "meta_epoch": "2025-12-08T03:10:49.968192",
        "meta_mean_motion": 1.00268453,
        "meta_eccentricity": 0.00017836,
        "meta_inclination": 6.4434,
        "meta_ra_of_asc_node": 71.4841,
        "meta_arg_of_pericenter": 217.0339,
        "meta_mean_anomaly": 164.8002,
        "meta_ephemeris_type": 0,
        "meta_classification_type": "U",
        "meta_norad_cat_id": 27380,
        "meta_element_set_no": 999,
        "meta_rev_at_epoch": 4985,
        "meta_bstar": 0,
        "meta_mean_motion_dot": -2.26e-06,
        "meta_mean_motion_ddot": 0,
        "tle_line1": "1 27380U 02007A   25342.13252278 -.00000226  00000+0  00000+0 0  9994",
        "tle_line2": "2 27380   6.4434  71.4841 0001783 217.0339 164.8002  1.00268453 49858"
      },
      "geometry": {
        "type": "Point",
        "coordinates": [
          -78.33196584361447,
          -3.27191848558242
        ]
      }
    },
    {
      "type": "Feature",
      "properties": {
        "norad_id": 27426,
        "name": "DIRECTV 5 (TEMPO 1)",
        "group": "intelsat",
        "lat": 3.562194042093583,
        "lon": -156.7148828690053,
        "alt_km": 35780.70492109602,
        "timestamp": "2025-12-08T15:42:49.445986+00:00",
        "meta_object_name": "DIRECTV 5 (TEMPO 1)",
        "meta_object_id": "2002-023A",
        "meta_epoch": "2025-12-08T06:02:11.611392",
        "meta_mean_motion": 1.00271804,
        "meta_eccentricity": 0.00039214,
        "meta_inclination": 4.3907,
        "meta_ra_of_asc_node": 77.7036,
        "meta_arg_of_pericenter": 198.4634,
        "meta_mean_anomaly": 141.524,
        "meta_ephemeris_type": 0,
        "meta_classification_type": "U",
        "meta_norad_cat_id": 27426,
        "meta_element_set_no": 999,
        "meta_rev_at_epoch": 8620,
        "meta_bstar": 0,
        "meta_mean_motion_dot": -5.6e-07,
        "meta_mean_motion_ddot": 0,
        "tle_line1": "1 27426U 02023A   25342.25152328 -.00000056  00000+0  00000+0 0  9992",
        "tle_line2": "2 27426   4.3907  77.7036 0003921 198.4634 141.5240  1.00271804 86202"
      },
      "geometry": {
        "type": "Point",
        "coordinates": [
          -156.7148828690053,
          3.562194042093583
        ]
      }
    },
    {
      "type": "Feature",
      "properties": {
        "norad_id": 27438,
        "name": "INTELSAT 905 (IS-905)",
        "group": "intelsat",
        "lat": 6.087498496935337,
        "lon": 176.20806763006405,
        "alt_km": 35784.51884968185,
        "timestamp": "2025-12-08T15:42:49.445998+00:00",
        "meta_object_name": "INTELSAT 905 (IS-905)",
        "meta_object_id": "2002-027A",
        "meta_epoch": "2025-12-08T05:41:13.241184",
        "meta_mean_motion": 1.00271095,
        "meta_eccentricity": 0.00029115,
        "meta_inclination": 6.2743,
        "meta_ra_of_asc_node": 72.1062,
        "meta_arg_of_pericenter": 189.7236,
        "meta_mean_anomaly": 123.5142,
        "meta_ephemeris_type": 0,
        "meta_classification_type": "U",
        "meta_norad_cat_id": 27438,
        "meta_element_set_no": 999,
        "meta_rev_at_epoch": 4944,
        "meta_bstar": 0,
        "meta_mean_motion_dot": 9.4e-07,
        "meta_mean_motion_ddot": 0,
        "tle_line1": "1 27438U 02027A   25342.23695881  .00000094  00000+0  00000+0 0  9994",
        "tle_line2": "2 27438   6.2743  72.1062 0002911 189.7236 123.5142  1.00271095 49449"
      },
      "geometry": {
        "type": "Point",
        "coordinates": [
          176.20806763006405,
          6.087498496935337
        ]
      }
    },
    {
      "type": "Feature",
      "properties": {
        "norad_id": 27445,
        "name": "GALAXY 3C (G-3C)",
        "group": "intelsat",
        "lat": 2.1610906253703503,
        "lon": -141.4442993988786,
        "alt_km": 35782.31854606018,
        "timestamp": "2025-12-08T15:42:49.446010+00:00",
        "meta_object_name": "GALAXY 3C (G-3C)",
        "meta_object_id": "2002-030A",
        "meta_epoch": "2025-12-08T06:04:13.145952",
        "meta_mean_motion": 1.00270824,
        "meta_eccentricity": 0.00011309,
        "meta_inclination": 3.253,
        "meta_ra_of_asc_node": 80.55,
        "meta_arg_of_pericenter": 100.4843,
        "meta_mean_anomaly": 252.4211,
        "meta_ephemeris_type": 0,
        "meta_classification_type": "U",
        "meta_norad_cat_id": 27445,
        "meta_element_set_no": 999,
        "meta_rev_at_epoch": 4457,
        "meta_bstar": 0,
        "meta_mean_motion_dot": -1.51e-06,
        "meta_mean_motion_ddot": 0,
        "tle_line1": "1 27445U 02030A   25342.25292993 -.00000151  00000+0  00000+0 0  9990",
        "tle_line2": "2 27445   3.2530  80.5500 0001130 100.4843 252.4211  1.00270824 44571"
      },
      "geometry": {
        "type": "Point",
        "coordinates": [
          -141.4442993988786,
          2.1610906253703503
        ]
      }
    },
    {
      "type": "Feature",
      "properties": {
        "norad_id": 27513,
        "name": "INTELSAT 906 (IS-906)",
        "group": "intelsat",
        "lat": -4.485374027118428,
        "lon": 17.677690020682153,
        "alt_km": 35797.005150656376,
        "timestamp": "2025-12-08T15:42:49.446023+00:00",
        "meta_object_name": "INTELSAT 906 (IS-906)",
        "meta_object_id": "2002-041A",
        "meta_epoch": "2025-12-08T05:21:00.002016",
        "meta_mean_motion": 1.00270727,
        "meta_eccentricity": 0.00060743,
        "meta_inclination": 5.3173,
        "meta_ra_of_asc_node": 75.2852,
        "meta_arg_of_pericenter": 189.2744,
        "meta_mean_anomaly": 317.0603,
        "meta_ephemeris_type": 0,
        "meta_classification_type": "U",
        "meta_norad_cat_id": 27513,
        "meta_element_set_no": 999,
        "meta_rev_at_epoch": 8511,
        "meta_bstar": 0,
        "meta_mean_motion_dot": 1.4e-07,
        "meta_mean_motion_ddot": 0,
        "tle_line1": "1 27513U 02041A   25342.22291669  .00000014  00000+0  00000+0 0  9991",
        "tle_line2": "2 27513   5.3173  75.2852 0006074 189.2744 317.0603  1.00270727 85111"
      },
      "geometry": {
        "type": "Point",
        "coordinates": [
          17.677690020682153,
          -4.485374027118428
        ]
      }
    }
  ]
}